{
  "type": "FeatureCollection",
  "features": [
    {
      "type": "Feature",
      "properties": {
        "norad_id": 66891,
        "name": "STARLINK-35855",
        "group": "last-30-days",
        "lat": 28.915377726757914,
        "lon": 160.99636404892615,
        "alt_km": 393.9109760683914,
        "timestamp": "2025-12-26T11:25:43.986716+00:00",
        "meta_object_name": "STARLINK-35855",
        "meta_object_id": "2025-283P",
        "meta_epoch": "2025-12-26T04:00:01.998720",
        "meta_mean_motion": 15.57836705,
        "meta_eccentricity": 0.0001573,
        "meta_inclination": 53.16,
        "meta_ra_of_asc_node": 6.9589,
        "meta_arg_of_pericenter": 87.5005,
        "meta_mean_anomaly": 119.1874,
        "meta_ephemeris_type": 0,
        "meta_classification_type": "U",
        "meta_norad_cat_id": 66891,
        "meta_element_set_no": 999,
        "meta_rev_at_epoch": 458,
        "meta_bstar": -0.030046,
        "meta_mean_motion_dot": -0.01999317,
        "meta_mean_motion_ddot": 0,
        "tle_line1": "1 66891U 25283P   25360.16668980 -.01999317  00000+0 -30046-1 0  9994",
        "tle_line2": "2 66891  53.1600   6.9589 0001573  87.5005 119.1874 15.57836705  4580"
      },
      "geometry": {
        "type": "Point",
        "coordinates": [
          160.99636404892615,
          28.915377726757914
        ]
      }
    },
    {
      "type": "Feature",
      "properties": {
        "norad_id": 66892,
        "name": "STARLINK-35883",
        "group": "last-30-days",
        "lat": 27.509395320163268,
        "lon": 162.47461980251475,
        "alt_km": 394.14236416720996,
        "timestamp": "2025-12-26T11:25:43.986726+00:00",
        "meta_object_name": "STARLINK-35883",
        "meta_object_id": "2025-283Q",
        "meta_epoch": "2025-12-26T04:00:01.998720",
        "meta_mean_motion": 15.57836082,
        "meta_eccentricity": 0.0001594,
        "meta_inclination": 53.1599,
        "meta_ra_of_asc_node": 6.9543,
        "meta_arg_of_pericenter": 88.8771,
        "meta_mean_anomaly": 119.7281,
        "meta_ephemeris_type": 0,
        "meta_classification_type": "U",
        "meta_norad_cat_id": 66892,
        "meta_element_set_no": 999,
        "meta_rev_at_epoch": 452,
        "meta_bstar": -0.030033,
        "meta_mean_motion_dot": -0.01998561,
        "meta_mean_motion_ddot": 0,
        "tle_line1": "1 66892U 25283Q   25360.16668980 -.01998561  00000+0 -30033-1 0  9991",
        "tle_line2": "2 66892  53.1599   6.9543 0001594  88.8771 119.7281 15.57836082  4525"
      },
      "geometry": {
        "type": "Point",
        "coordinates": [
          162.47461980251475,
          27.509395320163268
        ]
      }
    },
    {
      "type": "Feature",
      "properties": {
        "norad_id": 66893,
        "name": "STARLINK-36033",
        "group": "last-30-days",
        "lat": 26.088685819092216,
        "lon": 163.91517603785806,
        "alt_km": 394.4425296053323,
        "timestamp": "2025-12-26T11:25:43.986735+00:00",
        "meta_object_name": "STARLINK-36033",
        "meta_object_id": "2025-283R",
        "meta_epoch": "2025-12-26T04:00:01.998720",
        "meta_mean_motion": 15.5783405,
        "meta_eccentricity": 0.0001529,
        "meta_inclination": 53.1597,
        "meta_ra_of_asc_node": 6.9503,
        "meta_arg_of_pericenter": 87.7153,
        "meta_mean_anomaly": 122.8071,
        "meta_ephemeris_type": 0,
        "meta_classification_type": "U",
        "meta_norad_cat_id": 66893,
        "meta_element_set_no": 999,
        "meta_rev_at_epoch": 458,
        "meta_bstar": -0.029969,
        "meta_mean_motion_dot": -0.01994628,
        "meta_mean_motion_ddot": 0,
        "tle_line1": "1 66893U 25283R   25360.16668980 -.01994628  00000+0 -29969-1 0  9998",
        "tle_line2": "2 66893  53.1597   6.9503 0001529  87.7153 122.8071 15.57834050  4581"
      },
      "geometry": {
        "type": "Point",
        "coordinates": [
          163.91517603785806,
          26.088685819092216
        ]
      }
    },
    {
      "type": "Feature",
      "properties": {
        "norad_id": 66894,
        "name": "STARLINK-35718",
        "group": "last-30-days",
        "lat": 24.652805133275887,
        "lon": 165.3232303692822,
        "alt_km": 394.69976866406796,
        "timestamp": "2025-12-26T11:25:43.986744+00:00",
        "meta_object_name": "STARLINK-35718",
        "meta_object_id": "2025-283S",
        "meta_epoch": "2025-12-26T04:00:01.998720",
        "meta_mean_motion": 15.57837253,
        "meta_eccentricity": 0.0001554,
        "meta_inclination": 53.1599,
        "meta_ra_of_asc_node": 6.9472,
        "meta_arg_of_pericenter": 87.7623,
        "meta_mean_anomaly": 124.6766,
        "meta_ephemeris_type": 0,
        "meta_classification_type": "U",
        "meta_norad_cat_id": 66894,
        "meta_element_set_no": 999,
        "meta_rev_at_epoch": 458,
        "meta_bstar": -0.030057,
        "meta_mean_motion_dot": -0.01999966,
        "meta_mean_motion_ddot": 0,
        "tle_line1": "1 66894U 25283S   25360.16668980 -.01999966  00000+0 -30057-1 0  9999",
        "tle_line2": "2 66894  53.1599   6.9472 0001554  87.7623 124.6766 15.57837253  4588"
      },
      "geometry": {
        "type": "Point",
        "coordinates": [
          165.3232303692822,
          24.652805133275887
        ]
      }
    },
    {
      "type": "Feature",
      "properties": {
        "norad_id": 66895,
        "name": "STARLINK-35971",
        "group": "last-30-days",
        "lat": 21.74447001946737,
        "lon": 168.04006222386604,
        "alt_km": 395.23490804999255,
        "timestamp": "2025-12-26T11:25:43.986754+00:00",
        "meta_object_name": "STARLINK-35971",
        "meta_object_id": "2025-283T",
        "meta_epoch": "2025-12-26T04:00:01.998720",
        "meta_mean_motion": 15.57840418,
        "meta_eccentricity": 0.0001588,
        "meta_inclination": 53.16,
        "meta_ra_of_asc_node": 6.937,
        "meta_arg_of_pericenter": 86.8731,
        "meta_mean_anomaly": 129.3981,
        "meta_ephemeris_type": 0,
        "meta_classification_type": "U",
        "meta_norad_cat_id": 66895,
        "meta_element_set_no": 999,
        "meta_rev_at_epoch": 458,
        "meta_bstar": -0.030109,
        "meta_mean_motion_dot": -0.02003252,
        "meta_mean_motion_ddot": 0,
        "tle_line1": "1 66895U 25283T   25360.16668980 -.02003252  00000+0 -30109-1 0  9993",
        "tle_line2": "2 66895  53.1600   6.9370 0001588  86.8731 129.3981 15.57840418  4584"
      },
      "geometry": {
        "type": "Point",
        "coordinates": [
          168.04006222386604,
          21.74447001946737
        ]
      }
    },
    {
      "type": "Feature",
      "properties": {
        "norad_id": 66896,
        "name": "STARLINK-35791",
        "group": "last-30-days",
        "lat": 23.204229397728778,
        "lon": 166.69610622664183,
        "alt_km": 395.0066852660302,
        "timestamp": "2025-12-26T11:25:43.986764+00:00",
        "meta_object_name": "STARLINK-35791",
        "meta_object_id": "2025-283U",
        "meta_epoch": "2025-12-26T04:00:01.998720",
        "meta_mean_motion": 15.57846152,
        "meta_eccentricity": 0.0001453,
        "meta_inclination": 53.1599,
        "meta_ra_of_asc_node": 6.9415,
        "meta_arg_of_pericenter": 87.292,
        "meta_mean_anomaly": 127.0607,
        "meta_ephemeris_type": 0,
        "meta_classification_type": "U",
        "meta_norad_cat_id": 66896,
        "meta_element_set_no": 999,
        "meta_rev_at_epoch": 458,
        "meta_bstar": -0.030245,
        "meta_mean_motion_dot": -0.02011432,
        "meta_mean_motion_ddot": 0,
        "tle_line1": "1 66896U 25283U   25360.16668980 -.02011432  00000+0 -30245-1 0  9994",
        "tle_line2": "2 66896  53.1599   6.9415 0001453  87.2920 127.0607 15.57846152  4589"
      },
      "geometry": {
        "type": "Point",
        "coordinates": [
          166.69610622664183,
          23.204229397728778
        ]
      }
    },
    {
      "type": "Feature",
      "properties": {
        "norad_id": 66897,
        "name": "STARLINK-36079",
        "group": "last-30-days",
        "lat": 20.275122594760084,
        "lon": 169.357388329693,
        "alt_km": 395.49659001099917,
        "timestamp": "2025-12-26T11:25:43.986775+00:00",
        "meta_object_name": "STARLINK-36079",
        "meta_object_id": "2025-283V",
        "meta_epoch": "2025-12-26T04:00:01.998720",
        "meta_mean_motion": 15.57842068,
        "meta_eccentricity": 0.0001408,
        "meta_inclination": 53.1601,
        "meta_ra_of_asc_node": 6.9341,
        "meta_arg_of_pericenter": 91.6951,
        "meta_mean_anomaly": 126.4946,
        "meta_ephemeris_type": 0,
        "meta_classification_type": "U",
        "meta_norad_cat_id": 66897,
        "meta_element_set_no": 999,
        "meta_rev_at_epoch": 458,
        "meta_bstar": -0.030189,
        "meta_mean_motion_dot": -0.02007905,
        "meta_mean_motion_ddot": 0,
        "tle_line1": "1 66897U 25283V   25360.16668980 -.02007905  00000+0 -30189-1 0  9992",
        "tle_line2": "2 66897  53.1601   6.9341 0001408  91.6951 126.4946 15.57842068  4586"
      },
      "geometry": {
        "type": "Point",
        "coordinates": [
          169.357388329693,
          20.275122594760084
        ]
      }
    }
  ]
}